NORAD_CAT_ID,OBJECT_NAME,OBJECT_TYPE,EPOCH,MEAN_MOTION,ECCENTRICITY,INCLINATION,RA_OF_ASC_NODE,ARG_OF_PERICENTER,MEAN_ANOMALY,BSTAR,MEAN_MOTION_DOT,MEAN_MOTION_DDOT,TLE_LINE0,TLE_LINE1,TLE_LINE2,SEMIMAJOR_AXIS,PERIOD,APOGEE,PERIGEE,DECAYED
54203.0,STARLINK-5247,PAYLOAD,2024-04-03 18:47:10,15.08846458,0.0001235,53.2164,278.3754,81.3541,278.7591,0.00022925,3.363e-05,0.0,0 STARLINK-5247,1 54203U 22141AY  24094.78276275  .00003363  00000-0  22925-3 0  9995,2 54203  53.2164 278.3754 0001235  81.3541 278.7591 15.08846458 79819,6917.861,95.437,540.58,538.871,0.0
54203.0,STARLINK-5247,PAYLOAD,2024-04-03 21:57:56,15.08847638,0.0001276,53.2164,277.7805,82.7189,277.3948,0.00020929,3.045e-05,0.0,0 STARLINK-5247,1 54203U 22141AY  24094.91524168  .00003045  00000-0  20929-3 0  9996,2 54203  53.2164 277.7805 0001276  82.7189 277.3948 15.08847638 79606,6917.857,95.437,540.605,538.839,0.0
54203.0,STARLINK-5247,PAYLOAD,2024-04-04 12:16:25,15.08840382,0.0001194,53.2162,275.104,84.267,275.8458,9.7023e-05,1.257e-05,0.0,0 STARLINK-5247,1 54203U 22141AY  24095.51140393  .00001257  00000-0  97023-4 0  9990,2 54203  53.2162 275.1040 0001194  84.2670 275.8458 15.08840382 79921,6917.879,95.438,540.57,538.918,0.0
54203.0,STARLINK-5247,PAYLOAD,2024-04-04 17:02:34,15.08841093,0.0001271,53.2161,274.2117,84.4253,275.6884,3.2712e-05,2.33e-06,0.0,0 STARLINK-5247,1 54203U 22141AY  24095.71012310  .00000233  00000-0  32712-4 0  9996,2 54203  53.2161 274.2117 0001271  84.4253 275.6884 15.08841093 79729,6917.877,95.437,540.621,538.863,0.0
54203.0,STARLINK-5247,PAYLOAD,2024-04-05 18:28:44,15.08848419,0.0001191,53.2172,269.4542,82.6187,277.4941,0.00013692,1.892e-05,0.0,0 STARLINK-5247,1 54203U 22141AY  24096.76995549  .00001892  00000-0  13692-3 0  9993,2 54203  53.2172 269.4542 0001191  82.6187 277.4941 15.08848419 80114,6917.855,95.437,540.544,538.896,0.0
54203.0,STARLINK-5247,PAYLOAD,2024-04-05 21:39:30,15.08850383,0.000116,53.2169,268.8592,80.405,279.7073,0.00012064,1.633e-05,0.0,0 STARLINK-5247,1 54203U 22141AY  24096.90243380  .00001633  00000-0  12064-3 0  9993,2 54203  53.2169 268.8592 0001160  80.4050 279.7073 15.08850383 79908,6917.849,95.437,540.516,538.911,0.0
54203.0,STARLINK-5247,PAYLOAD,2024-04-06 11:57:59,15.0883607,0.0001894,53.2177,266.1852,107.6451,252.4748,1.9578e-05,2.3e-07,0.0,0 STARLINK-5247,1 54203U 22141AY  24097.49860215  .00000023  00000-0  19578-4 0  9990,2 54203  53.2177 266.1852 0001894 107.6451 252.4748 15.08836070 80229,6917.892,95.438,541.068,538.447,0.0
54203.0,STARLINK-5247,PAYLOAD,2024-04-06 19:54:55,15.0883575,0.000175,53.217,264.6979,93.4441,266.6751,-2.5076e-05,-6.87e-06,0.0,0 STARLINK-5247,1 54203U 22141AY  24097.82980351 -.00000687  00000-0 -25076-4 0  9999,2 54203  53.2170 264.6979 0001750  93.4441 266.6751 15.08835750 80042,6917.893,95.438,540.969,538.548,0.0
54203.0,STARLINK-5247,PAYLOAD,2024-04-07 10:13:23,15.08837068,0.0001534,53.2179,262.0233,97.3919,262.7248,-5.5372e-05,-1.169e-05,0.0,0 STARLINK-5247,1 54203U 22141AY  24098.42596498 -.00001169  00000-0 -55372-4 0  9999,2 54203  53.2179 262.0233 0001534  97.3919 262.7248 15.08837068 80131,6917.889,95.438,540.816,538.693,0.0
54203.0,STARLINK-5247,PAYLOAD,2024-04-08 10:04:10,15.08846194,0.0001481,53.2143,257.5598,87.4628,272.6533,-7.4362e-05,-1.471e-05,0.0,0 STARLINK-5247,1 54203U 22141AY  24099.41956230 -.00001471  00000-0 -74362-4 0  9999,2 54203  53.2143 257.5598 0001481  87.4628 272.6533 15.08846194 80512,6917.861,95.437,540.751,538.702,0.0
54203.0,STARLINK-5247,PAYLOAD,2024-04-09 03:33:25,15.08842945,0.0001462,53.2157,254.2887,87.8364,272.2796,0.00020498,2.976e-05,0.0,0 STARLINK-5247,1 54203U 22141AY  24100.14820705  .00002976  00000-0  20498-3 0  9998,2 54203  53.2157 254.2887 0001462  87.8364 272.2796 15.08842945 80621,6917.871,95.437,540.748,538.725,0.0
54203.0,STARLINK-5247,PAYLOAD,2024-04-09 19:27:16,15.08843238,0.0001664,53.2152,251.3161,85.7596,274.3586,0.00012806,1.751e-05,0.0,0 STARLINK-5247,1 54203U 22141AY  24100.81060744  .00001751  00000-0  12806-3 0  9995,2 54203  53.2152 251.3161 0001664  85.7596 274.3586 15.08843238 80498,6917.87,95.437,540.887,538.584,0.0
54203.0,STARLINK-5247,PAYLOAD,2024-04-10 09:45:44,15.08841824,0.0001661,53.212,248.639,87.5765,272.5417,0.0001139,1.525e-05,0.0,0 STARLINK-5247,1 54203U 22141AY  24101.40676797  .00001525  00000-0  11390-3 0  9998,2 54203  53.2120 248.6390 0001661  87.5765 272.5417 15.08841824 80819,6917.875,95.437,540.889,538.591,0.0
54203.0,STARLINK-5247,PAYLOAD,2024-04-10 16:07:17,15.08841638,0.0001651,53.2116,247.4491,88.4134,271.7047,0.00010277,1.348e-05,0.0,0 STARLINK-5247,1 54203U 22141AY  24101.67172779  .00001348  00000-0  10277-3 0  9994,2 54203  53.2116 247.4491 0001651  88.4134 271.7047 15.08841638 80624,6917.875,95.437,540.883,538.598,0.0
54203.0,STARLINK-5247,PAYLOAD,2024-04-11 12:47:18,15.08838697,0.0001523,53.2127,243.5825,91.9643,268.1524,5.4786e-05,5.84e-06,0.0,0 STARLINK-5247,1 54203U 22141AY  24102.53285041  .00000584  00000-0  54786-4 0  9992,2 54203  53.2127 243.5825 0001523  91.9643 268.1524 15.08838697 80986,6917.884,95.438,540.803,538.696,0.0
54203.0,STARLINK-5247,PAYLOAD,2024-04-11 14:22:41,15.08835248,0.0001426,53.2161,243.2849,97.0433,263.0721,0.00013014,1.784e-05,0.0,0 STARLINK-5247,1 54203U 22141AY  24102.59909115  .00001784  00000-0  13014-3 0  9994,2 54203  53.2161 243.2849 0001426  97.0433 263.0721 15.08835248 80761,6917.895,95.438,540.746,538.773,0.0
54203.0,STARLINK-5247,PAYLOAD,2024-04-11 15:58:04,15.08853412,0.0001406,53.2172,242.9887,98.095,262.0201,-6.2193e-05,-1.278e-05,0.0,0 STARLINK-5247,1 54203U 22141AY  24102.66532475 -.00001278  00000-0 -62193-4 0  9996,2 54203  53.2172 242.9887 0001406  98.0950 262.0201 15.08853412 81007,6917.839,95.437,540.677,538.732,0.0
54203.0,STARLINK-5247,PAYLOAD,2024-04-12 12:38:06,15.08771961,0.0001994,53.2183,239.1247,86.7681,273.3539,0.0010388,0.00016253,0.0,0 STARLINK-5247,1 54203U 22141AY  24103.52646980  .00016253  00000-0  10388-2 0  9993,2 54203  53.2183 239.1247 0001994  86.7681 273.3539 15.08771961 81135,6918.088,95.442,541.333,538.574,0.0
54203.0,STARLINK-5247,PAYLOAD,2024-04-12 14:13:30,15.08773504,0.0001998,53.2182,238.8274,86.3489,273.7732,0.0010325,0.00016153,0.0,0 STARLINK-5247,1 54203U 22141AY  24103.59271145  .00016153  00000-0  10325-2 0  9997,2 54203  53.2182 238.8274 0001998  86.3489 273.7732 15.08773504 80915,6918.084,95.442,541.331,538.566,0.0
54203.0,STARLINK-5247,PAYLOAD,2024-04-13 12:28:52,15.08835951,0.0001503,53.2183,234.6643,81.7139,278.4023,6.0272e-05,6.71e-06,0.0,0 STARLINK-5247,1 54203U 22141AY  24104.52005703  .00000671  00000-0  60272-4 0  9992,2 54203  53.2183 234.6643 0001503  81.7139 278.4023 15.08835951 81284,6917.893,95.438,540.798,538.718,0.0
54203.0,STARLINK-5247,PAYLOAD,2024-04-13 14:04:15,15.08837282,0.0001527,53.2186,234.3672,80.2324,279.8841,6.9219e-05,8.14e-06,0.0,0 STARLINK-5247,1 54203U 22141AY  24104.58629617  .00000814  00000-0  69219-4 0  9993,2 54203  53.2186 234.3672 0001527  80.2324 279.8841 15.08837282 81060,6917.889,95.438,540.81,538.697,0.0
54203.0,STARLINK-5247,PAYLOAD,2024-04-13 15:39:38,15.08839567,0.0001607,53.2189,234.0712,96.1262,263.9913,7.8838e-05,9.67e-06,0.0,0 STARLINK-5247,1 54203U 22141AY  24104.65253395  .00000967  00000-0  78838-4 0  9993,2 54203  53.2189 234.0712 0001607  96.1262 263.9913 15.08839567 81074,6917.882,95.438,540.858,538.635,0.0
54203.0,STARLINK-5247,PAYLOAD,2024-04-14 13:55:02,15.08854159,0.0001604,53.2181,229.9064,96.6992,263.4183,-3.6328e-05,-8.66e-06,0.0,0 STARLINK-5247,1 54203U 22141AY  24105.57988891 -.00000866  00000-0 -36328-4 0  9999,2 54203  53.2181 229.9064 0001604  96.6992 263.4183 15.08854159 81440,6917.837,95.437,540.812,538.592,0.0
54203.0,STARLINK-5247,PAYLOAD,2024-04-15 12:10:26,15.08844504,0.0001312,53.2169,225.7432,91.4908,268.6234,9.9675e-05,1.299e-05,0.0,0 STARLINK-5247,1 54203U 22141AY  24106.50725219  .00001299  00000-0  99675-4 0  9999,2 54203  53.2169 225.7432 0001312  91.4908 268.6234 15.08844504 81587,6917.867,95.437,540.639,538.824,0.0
54203.0,STARLINK-5247,PAYLOAD,2024-04-15 13:45:49,15.08846278,0.0001641,53.2182,225.4469,67.3761,292.7404,0.00011829,1.595e-05,0.0,0 STARLINK-5247,1 54203U 22141AY  24106.57349254  .00001595  00000-0  11829-3 0  9990,2 54203  53.2182 225.4469 0001641  67.3761 292.7404 15.08846278 81366,6917.861,95.437,540.861,538.591,0.0
54203.0,STARLINK-5247,PAYLOAD,2024-04-16 13:36:36,15.08847797,0.0001644,53.216,220.9859,88.6385,271.4795,7.0107e-05,8.28e-06,0.0,0 STARLINK-5247,1 54203U 22141AY  24107.56708781  .00000828  00000-0  70107-4 0  9997,2 54203  53.2160 220.9859 0001644  88.6385 271.4795 15.08847797 81517,6917.857,95.437,540.859,538.584,0.0
54203.0,STARLINK-5247,PAYLOAD,2024-04-16 15:11:58,15.08862589,0.0001339,53.216,220.6846,83.823,276.2915,0.00030833,4.626e-05,0.0,0 STARLINK-5247,1 54203U 22141AY  24107.63331907  .00004626  00000-0  30833-3 0  9998,2 54203  53.2160 220.6846 0001339  83.8230 276.2915 15.08862589 81756,6917.811,95.436,540.603,538.75,0.0
54203.0,STARLINK-5247,PAYLOAD,2024-04-17 11:52:01,15.08825287,0.0001552,53.2181,216.8242,72.3639,287.7522,-0.00013273,-2.399e-05,0.0,0 STARLINK-5247,1 54203U 22141AY  24108.49446464 -.00002399  00000-0 -13273-3 0  9994,2 54203  53.2181 216.8242 0001552  72.3639 287.7522 15.08825287 81888,6917.925,95.438,540.864,538.717,0.0
54203.0,STARLINK-5247,PAYLOAD,2024-04-17 13:27:24,15.0882766,0.0001653,53.2177,216.5254,79.8871,280.2308,-0.00010529,-1.963e-05,0.0,0 STARLINK-5247,1 54203U 22141AY  24108.56070382 -.00001963  00000-0 -10529-3 0  9991,2 54203  53.2177 216.5254 0001653  79.8871 280.2308 15.08827660 81668,6917.918,95.438,540.927,538.64,0.0
54203.0,STARLINK-5247,PAYLOAD,2024-04-18 11:42:47,15.088606,0.0001603,53.2166,212.3629,84.9636,275.1539,0.00048323,7.415e-05,0.0,0 STARLINK-5247,1 54203U 22141AY  24109.48805363  .00007415  00000-0  48323-3 0  9997,2 54203  53.2166 212.3629 0001603  84.9636 275.1539 15.08860600 82039,6917.817,95.436,540.791,538.573,0.0
